IRIDIUM 7               
1 24793U 97020B   25167.27149589  .00000296  00000+0  95171-4 0  9992
2 24793  86.3982 177.2937 0002567  93.0952 267.0538 14.35938902471767
IRIDIUM 5               
1 24795U 97020D   25167.50583703  .00003768  00000+0  30759-3 0  9997
2 24795  86.3882  84.0475 0110353 139.6975 221.2501 14.94352823485365
IRIDIUM 4               
1 24796U 97020E   25167.46444216  .00000314  00000+0  99592-4 0  9993
2 24796  86.3977 174.0937 0002328  93.0326 267.1138 14.36841657472364
IRIDIUM 914             
1 24836U 97030A   25167.33061038  .00000353  00000+0  10411-3 0  9997
2 24836  86.3956 182.7485 0001704 133.2227 226.9115 14.40871314607001
IRIDIUM 16              
1 24841U 97030F   25167.84565790  .00000281  00000+0  85079-4 0  9996
2 24841  86.4050 205.4172 0004496  79.4194 280.7510 14.38715043467211
IRIDIUM 911             
1 24842U 97030G   25167.84005777  .00000422  00000+0  10877-3 0  9991
2 24842  86.4475 204.1898 0016589  97.8621 262.4466 14.47639887475014
IRIDIUM 17              
1 24870U 97034B   25167.48473613  .00000346  00000+0  10842-3 0  9991
2 24870  86.3965 235.0464 0003187  63.5180 296.6345 14.37828896463482
IRIDIUM 920             
1 24871U 97034C   25167.11285860  .00000358  00000+0  10379-3 0  9995
2 24871  86.3989 214.4393 0013933  86.6171 273.6622 14.41533813466424
